0 SL-16 R/B
1 17974U 87041B   13282.45175064 -.00000162  00000-0 -56502-4 0  9405
2 17974 071.0089 226.9658 0016273 288.1839 210.2708 14.17052817365887
0 SL-16 R/B
1 17974U 87041B   13284.13653134 -.00000030  00000-0  90572-5 0  9411
2 17974 071.0091 223.4173 0016234 286.0007 164.6092 14.17051400366128
0 SL-16 R/B
1 17974U 87041B   13286.40376975  .00000162  00000-0  10425-3 0  9432
2 17974 071.0094 218.6421 0016235 282.9905 210.2210 14.17049796366446
0 SL-16 R/B
1 17974U 87041B   13287.80233249  .00000262  00000-0  15374-3 0  9443
2 17974 071.0096 215.6965 0016228 281.1877 144.4936 14.17049558366640
0 SL-16 R/B
1 17974U 87041B   13288.85923306  .00000296  00000-0  17085-3 0  9458
2 17974 071.0096 213.4705 0016236 279.8030 135.9185 14.17049866366791
0 SL-16 R/B
1 17974U 87041B   13290.06221691  .00000316  00000-0  18047-3 0  9465
2 17974 071.0096 210.9369 0016252 278.2736 152.4924 14.17050877366961
0 SL-16 R/B
1 17974U 87041B   13291.20962009  .00000277  00000-0  16136-3 0  9471
2 17974 071.0095 208.5204 0016284 276.7998 245.5577 14.17052178367122
0 SL-16 R/B
1 17974U 87041B   13292.40122759  .00000188  00000-0  11721-3 0  9481
2 17974 071.0095 206.0108 0016295 275.3019 204.0853 14.17053624367291
0 SL-16 R/B
1 17974U 87041B   13293.80034730  .00000063  00000-0  55045-4 0  9498
2 17974 071.0094 203.0641 0016328 273.4896 141.2163 14.17055245367497
0 SL-16 R/B
1 17974U 87041B   13294.86059045 -.00000022  00000-0  12977-4 0  9506
2 17974 071.0094 200.8312 0016354 272.1436 149.6625 14.17056301367648
0 SL-16 R/B
1 17974U 87041B   13295.99429766 -.00000091  00000-0 -21576-4 0  9515
2 17974 071.0094 198.4435 0016370 270.7071 172.8610 14.17057083367801
